#dP2019  8  3  0  0  0.00000000      96 __u+U IGS08 FIT  IAC
## 2064 518400.00000000   900.00000000 58698 0.0000000000000
+  112   C01C02C03C04C05C06C07C08C09C10C11C12C13C14C16C19C20
+        C21C22C23C24C25C26C27C28C29C30C33C34E01E02E03E04E05
+        E07E08E09E11E12E13E14E15E18E19E21E24E25E26E27E30E31
+        E33E36G01G02G03G04G05G06G07G08G09G10G11G12G13G14G15
+        G16G17G18G19G20G21G22G23G24G25G26G27G28G29G30G31G32
+        J01J02J03J07R01R02R03R04R05R07R08R09R11R12R13R14R15
+        R16R17R18R19R20R21R22R23R24R26  0  0  0  0  0  0  0
++        15 15 16 15 15 12 10 10 10 10  9  9 10  9 13  9  8
++         9  9  9  9  9  9  9  9  9  9  9  9  4  4  4  4  4
++         5  5  4  4  4  4  4  4  4  4  4  4  4  4  4  4  4
++         5  4  3  3  3  4  3  3  3  3  3  3  3  3  3  3  3
++         3  3  3  3  3  3  3  3  3  3  3  3  3  3  3  3  3
++         8  8  9 14  5  5  5  5  5  5  5  5  5  5  6  5  5
++         6  5  5  6  6  5  5  5  6  8  0  0  0  0  0  0  0
%c M  cc GPS ccc cccc cccc cccc cccc ccccc ccccc ccccc ccccc
%c cc cc ccc ccc cccc cccc cccc cccc ccccc ccccc ccccc ccccc
%f  1.2500000  1.025000000  0.00000000000  0.000000000000000
%f  0.0000000  0.000000000  0.00000000000  0.000000000000000
%i    0    0    0    0      0      0      0      0         0
%i    0    0    0    0      0      0      0      0         0
/* INFORMATION & ANALYSIS CENTER (IAC)            FINAL DATA
/* S/V CLOCKS ARE ALIGNED TO GPS & GLONASS TIME RESPECTIVELY
/* USING THE BROADCAST EPHEMERIS                            
/* PCV:IGS14_2062 OL/AL:FES2004  NONE     YN ORB:CoN CLK:CoN
*  2019 08 03 22  0  0.00000000
PC01 -32291.039717  27100.521254    880.506775    212.968484
PC02   4475.609821  41912.034927   -878.963818     -6.073135
PC03 -14749.636997  39478.862054   -169.513429    905.038093
PC04 -39601.601982  14484.361511    325.954051    875.101236
PC05  21849.215397  36009.464283  -1116.126718   -476.196883
PC06  -9033.435421  36754.340712 -17872.531762    500.043072
PC07 -13246.670825  22672.866365  33107.073381    -43.588650
PC08 -24945.162607  30552.688667 -15244.800986    167.554268
PC09   -877.636172  41636.154221  -5016.964247   -136.756628
PC10   2073.890193  27369.252111  32246.007971    -48.113863
PC11  10377.418150  14677.254974 -21315.152891    232.985780
PC12  -7929.937157  26796.126985    742.750576    933.645537
PC13 -13033.341652  31340.435754 -25126.253359   -887.280592
PC14  14823.509102  22332.424514  -7627.607635    516.547413
PC16  -7492.917931  37678.363390 -17158.358005   -880.853114
PC19 -22748.668056 -11928.638252 -10856.338089    163.811158
PC20 -15925.637504 -22015.549737   6300.897364     59.194348
PC21   -523.556248  19311.620413 -20126.760107    375.837537
PC22 -16389.280390   5271.825774 -21947.740512     44.205306
PC23  25423.485777 -10218.039344  -5317.548000   -921.281265
PC24   9887.684466  13712.692841  22204.240098   -948.367510
PC25  25228.324131   1637.347622  11806.076568   -302.863399
PC26  -9990.036980  17141.108760  19635.597269    338.747355
PC27   8330.234543 -26634.664820   -697.710798    165.199506
PC28  16504.285049 -15068.060939 -16705.899654    159.348824
PC29 -15239.436921  -4630.011822  22905.908435    100.486642
PC30  -5457.329866 -22507.105660  15577.945984 999999.999999
PC33  22841.571029  11846.724164  10839.032796   -284.633063
PC34   5594.427324  22335.418161 -15758.921391     25.245283
PE01 -25049.570795   5966.189818  14592.033945   -661.025025
PE02  25020.865849  -5997.831435 -14632.050728     72.305599
PE03  14695.181371  -9203.455128  23994.846913   -195.565896
PE04  -1658.123275  25336.931809 -15208.041594   -337.022614
PE05  19211.906209  12447.357324  18775.817746   -460.649371
PE07 -12463.486448 -26713.980835  -2591.705665   -239.261884
PE08   1305.076534 -25361.818377  15201.387217   6313.450326
PE09  12702.867331  26615.080993   2670.309300   6358.740171
PE11   4373.268510  18721.484719 -22512.783494   5635.616537
PE12 -12720.715104  25370.935320  -8384.021911   6265.836710
PE13  -4273.937326 -18756.660983  22495.793961    390.921718
PE14  19859.889700  -8833.048517 -23997.669014   -667.859229
PE15  12363.631384 -25438.904327   8728.803926    900.732416
PE18 -12817.376054  13508.060385  15014.938460   -762.968431
PE19 -15478.090630   7058.274347 -24215.001795     -4.766436
PE21 -28527.410603  -6835.796329  -3902.620098   -547.589867
PE24  15299.406533  15708.349707  19872.619110   5942.758477
PE25  28518.429015   6889.319531   3985.072315   1722.030221
PE26 -18620.709198  -1204.869908  22977.127005   4264.969804
PE27 -15160.144027 -15637.299575 -20034.892611    415.541188
PE30   6986.332221 -15293.455630 -24365.622123   4657.738523
PE31  -7049.081973  15249.411938  24379.188120   -467.035474
PE33 -21801.598861  17232.047850  10190.277390   -469.824156
PE36  18458.485261   1056.908074 -23116.683583    679.310431
PG01  -7610.411556  18656.961218 -17331.222044    -86.109443
PG02  21436.161347 -15526.559696   -233.197539   -274.964145
PG03   3410.186736  17343.538358 -19901.811487    176.950363
PG04 -13756.456430   7651.428420  21015.911137     54.452004
PG05  17243.472507  -6717.237981  18998.259593     -0.371267
PG06  22450.932623  -3348.513132 -13776.464412    -13.899535
PG07   8218.672845  13115.128764  21857.911054    -77.832398
PG08  -5486.568601  23853.288033  10080.962855     -1.302737
PG09   8534.812388  23043.591248  10027.977400    356.084295
PG10 -24175.212961 -11132.522438  -1697.954319     -1.193482
PG11  -6282.887878  24332.665491  -9542.640610   -544.502564
PG12    652.472940 -16216.222211 -21272.571619    217.555546
PG13  12679.115430 -16363.633129  16498.283523    -51.453401
PG14 -15086.731931    989.491512 -21504.018070    -68.345345
PG15   3482.755024 -24358.772601   9204.397453   -296.559812
PG16 -17937.861438   3778.318594  19188.863600    -61.870778
PG17  13776.401821   8096.954825 -20827.524824    100.385233
PG18 -14637.199615  19653.228311 -10598.152556     75.073851
PG19  14853.815296   1069.957417 -22296.259995   -285.616105
PG20 -21152.387159 -14094.132292   7886.195778    526.290449
PG21 -12943.437192  -9864.223837  21765.500287   -142.762165
PG22  -4501.363557  15223.376013 -21073.685458   -739.520833
PG23    491.365031  26260.520425  -1708.301040   -174.014069
PG24   9329.177706 -19978.174245 -14721.462632     -0.289691
PG25 -13414.759201 -18150.125409 -14412.762638     -5.255863
PG26 -23775.095252  -2153.821906  11811.908275      6.557698
PG27 -12219.079379  13510.537883  19104.148209    -13.267379
PG28  22724.611840  13507.495379  -1293.012693    765.425489
PG29  -4484.003632 -25056.427137   7515.436259    134.334763
PG30  17956.954012   5496.785364  18887.506254    -12.338468
PG31 -23519.097980   4260.691630 -12048.077087     19.795674
PG32 -14905.937764  -7778.913545 -20524.040744      5.348493
PJ01 -22053.274597  19217.758912 -25758.411448   -263.957322
PJ02 -30849.375619  23750.045477  20880.306083     -1.921026
PJ03 -27544.214007  26988.251653  22194.928954     -0.283117
PJ07 -25388.043821  33667.017727    -22.350425 999999.999999
PR01  17039.835209  16827.513411   8812.781115     47.652392
PR02  12311.170309   -657.182739  22364.093658    381.521721
PR03    643.734650 -15966.072631  19940.734541     -0.617976
PR04 -11794.107410 -21961.508954   5467.107191    316.315873
PR05 -16885.533148 -15546.578622 -11137.296077     33.157565
PR07   -256.949871  16262.262305 -19599.877761    -24.470434
PR08  11379.755546  21976.389190  -6110.363389     16.385938
PR09 -23315.901538   5804.984902   8472.061282     83.526678
PR11   8165.283085  10055.958287  22002.745984    -74.824401
PR12  22279.642176   3940.753466  11797.362132     49.589268
PR13  24220.267505  -4995.932509  -6289.532297    -26.705996
PR14  11962.845060 -10401.529712 -19974.793917     41.597321
PR15  -7146.660094 -10070.163136 -22293.586993    103.381732
PR16 -22533.076398  -3547.953626 -11547.223218      6.641096
PR17  11639.062387 -22647.984647  -1080.203211    248.994523
PR18   2463.037547 -20467.707457  15065.538186      2.575504
PR19  -7801.095864  -7458.909670  23104.982197    -46.086054
PR20 -14754.160356  11582.997722  17265.196822   -386.326149
PR21 -11386.610105  22841.091816    355.994170    -63.794153
PR22   -687.466160  18775.631252 -17192.076082    -31.438269
PR23  10748.075503   1739.907123 -23081.011728    244.908697
PR24  14708.752764 -13521.379376 -15896.354426   -183.302398
PR26 -14149.183659   9095.662132  19194.152583    -12.954382
EOF
